{
  "type": "FeatureCollection",
  "features": [
    {
      "type": "Feature",
      "properties": {
        "norad_id": 37238,
        "name": "INTELSAT 17 (IS-17)",
        "group": "intelsat",
        "lat": 0.006927373250796038,
        "lon": -59.75338789409385,
        "alt_km": 35776.72319816474,
        "timestamp": "2025-12-02T10:50:46.941158+00:00",
        "meta_object_name": "INTELSAT 17 (IS-17)",
        "meta_object_id": "2010-065B",
        "meta_epoch": "2025-12-02T03:49:10.527168",
        "meta_mean_motion": 1.00272254,
        "meta_eccentricity": 0.0002683,
        "meta_inclination": 0.0191,
        "meta_ra_of_asc_node": 277.0295,
        "meta_arg_of_pericenter": 347.6079,
        "meta_mean_anomaly": 289.9288,
        "meta_ephemeris_type": 0,
        "meta_classification_type": "U",
        "meta_norad_cat_id": 37238,
        "meta_element_set_no": 999,
        "meta_rev_at_epoch": 5127,
        "meta_bstar": 0,
        "meta_mean_motion_dot": 1.9e-07,
        "meta_mean_motion_ddot": 0,
        "tle_line1": "1 37238U 10065B   25336.15914962  .00000019  00000+0  00000+0 0  9999",
        "tle_line2": "2 37238   0.0191 277.0295 0002683 347.6079 289.9288  1.00272254 51277"
      },
      "geometry": {
        "type": "Point",
        "coordinates": [
          -59.75338789409385,
          0.006927373250796038
        ]
      }
    },
    {
      "type": "Feature",
      "properties": {
        "norad_id": 37392,
        "name": "INTELSAT 28 (IS-28)",
        "group": "intelsat",
        "lat": 1.1282497561855076,
        "lon": -157.51735728408195,
        "alt_km": 35776.44673136583,
        "timestamp": "2025-12-02T10:50:46.941169+00:00",
        "meta_object_name": "INTELSAT 28 (IS-28)",
        "meta_object_id": "2011-016A",
        "meta_epoch": "2025-12-02T03:21:35.668224",
        "meta_mean_motion": 1.00269802,
        "meta_eccentricity": 0.0004136,
        "meta_inclination": 1.2948,
        "meta_ra_of_asc_node": 85.184,
        "meta_arg_of_pericenter": 172.321,
        "meta_mean_anomaly": 192.4347,
        "meta_ephemeris_type": 0,
        "meta_classification_type": "U",
        "meta_norad_cat_id": 37392,
        "meta_element_set_no": 999,
        "meta_rev_at_epoch": 5131,
        "meta_bstar": 0,
        "meta_mean_motion_dot": -2.04e-06,
        "meta_mean_motion_ddot": 0,
        "tle_line1": "1 37392U 11016A   25336.13999616 -.00000204  00000+0  00000+0 0  9991",
        "tle_line2": "2 37392   1.2948  85.1840 0004136 172.3210 192.4347  1.00269802 51314"
      },
      "geometry": {
        "type": "Point",
        "coordinates": [
          -157.51735728408195,
          1.1282497561855076
        ]
      }
    },
    {
      "type": "Feature",
      "properties": {
        "norad_id": 37834,
        "name": "INTELSAT 18 (IS-18)",
        "group": "intelsat",
        "lat": 0.04187861525645138,
        "lon": 54.22917291499396,
        "alt_km": 35794.533826683626,
        "timestamp": "2025-12-02T10:50:46.941181+00:00",
        "meta_object_name": "INTELSAT 18 (IS-18)",
        "meta_object_id": "2011-056A",
        "meta_epoch": "2025-12-01T18:05:38.025312",
        "meta_mean_motion": 1.00270857,
        "meta_eccentricity": 0.000202,
        "meta_inclination": 0.0193,
        "meta_ra_of_asc_node": 320.1587,
        "meta_arg_of_pericenter": 289.5607,
        "meta_mean_anomaly": 272.5588,
        "meta_ephemeris_type": 0,
        "meta_classification_type": "U",
        "meta_norad_cat_id": 37834,
        "meta_element_set_no": 999,
        "meta_rev_at_epoch": 5183,
        "meta_bstar": 0,
        "meta_mean_motion_dot": 7.4e-07,
        "meta_mean_motion_ddot": 0,
        "tle_line1": "1 37834U 11056A   25335.75391233  .00000074  00000+0  00000+0 0  9998",
        "tle_line2": "2 37834   0.0193 320.1587 0002020 289.5607 272.5588  1.00270857 51831"
      },
      "geometry": {
        "type": "Point",
        "coordinates": [
          54.22917291499396,
          0.04187861525645138
        ]
      }
    },
    {
      "type": "Feature",
      "properties": {
        "norad_id": 38098,
        "name": "INTELSAT 22 (IS-22)",
        "group": "intelsat",
        "lat": -0.007823915355392345,
        "lon": -53.653458535488,
        "alt_km": 35781.09805373437,
        "timestamp": "2025-12-02T10:50:46.941193+00:00",
        "meta_object_name": "INTELSAT 22 (IS-22)",
        "meta_object_id": "2012-011A",
        "meta_epoch": "2025-12-02T04:00:38.578752",
        "meta_mean_motion": 1.00271784,
        "meta_eccentricity": 0.0001721,
        "meta_inclination": 0.0023,
        "meta_ra_of_asc_node": 359.2289,
        "meta_arg_of_pericenter": 260.3702,
        "meta_mean_anomaly": 303.9458,
        "meta_ephemeris_type": 0,
        "meta_classification_type": "U",
        "meta_norad_cat_id": 38098,
        "meta_element_set_no": 999,
        "meta_rev_at_epoch": 521,
        "meta_bstar": 0,
        "meta_mean_motion_dot": -3.8e-07,
        "meta_mean_motion_ddot": 0,
        "tle_line1": "1 38098U 12011A   25336.16711318 -.00000038  00000+0  00000+0 0  9990",
        "tle_line2": "2 38098   0.0023 359.2289 0001721 260.3702 303.9458  1.00271784  5214"
      },
      "geometry": {
        "type": "Point",
        "coordinates": [
          -53.653458535488,
          -0.007823915355392345
        ]
      }
    },
    {
      "type": "Feature",
      "properties": {
        "norad_id": 38356,
        "name": "INTELSAT 19 (IS-19)",
        "group": "intelsat",
        "lat": 0.0342602034533172,
        "lon": 40.26545992744585,
        "alt_km": 35797.76936268495,
        "timestamp": "2025-12-02T10:50:46.941206+00:00",
        "meta_object_name": "INTELSAT 19 (IS-19)",
        "meta_object_id": "2012-030A",
        "meta_epoch": "2025-12-02T03:49:38.726400",
        "meta_mean_motion": 1.00271628,
        "meta_eccentricity": 0.0003413,
        "meta_inclination": 0.0107,
        "meta_ra_of_asc_node": 318.3189,
        "meta_arg_of_pericenter": 298.3384,
        "meta_mean_anomaly": 38.041,
        "meta_ephemeris_type": 0,
        "meta_classification_type": "U",
        "meta_norad_cat_id": 38356,
        "meta_element_set_no": 999,
        "meta_rev_at_epoch": 4847,
        "meta_bstar": 0,
        "meta_mean_motion_dot": -3.5e-07,
        "meta_mean_motion_ddot": 0,
        "tle_line1": "1 38356U 12030A   25336.15947600 -.00000035  00000+0  00000+0 0  9999",
        "tle_line2": "2 38356   0.0107 318.3189 0003413 298.3384  38.0410  1.00271628 48472"
      },
      "geometry": {
        "type": "Point",
        "coordinates": [
          40.26545992744585,
          0.0342602034533172
        ]
      }
    },
    {
      "type": "Feature",
      "properties": {
        "norad_id": 38740,
        "name": "INTELSAT 20 (IS-20)",
        "group": "intelsat",
        "lat": -0.009469360958538432,
        "lon": -57.26618544939526,
        "alt_km": 35791.926607879686,
        "timestamp": "2025-12-02T10:50:46.941217+00:00",
        "meta_object_name": "INTELSAT 20 (IS-20)",
        "meta_object_id": "2012-043A",
        "meta_epoch": "2025-12-02T00:24:39.917952",
        "meta_mean_motion": 1.00268447,
        "meta_eccentricity": 0.0003085,
        "meta_inclination": 0.0115,
        "meta_ra_of_asc_node": 324.2147,
        "meta_arg_of_pericenter": 225.9347,
        "meta_mean_anomaly": 315.6275,
        "meta_ephemeris_type": 0,
        "meta_classification_type": "U",
        "meta_norad_cat_id": 38740,
        "meta_element_set_no": 999,
        "meta_rev_at_epoch": 4877,
        "meta_bstar": 0,
        "meta_mean_motion_dot": 0,
        "meta_mean_motion_ddot": 0,
        "tle_line1": "1 38740U 12043A   25336.01712868  .00000000  00000+0  00000+0 0  9992",
        "tle_line2": "2 38740   0.0115 324.2147 0003085 225.9347 315.6275  1.00268447 48779"
      },
      "geometry": {
        "type": "Point",
        "coordinates": [
          -57.26618544939526,
          -0.009469360958538432
        ]
      }
    },
    {
      "type": "Feature",
      "properties": {
        "norad_id": 38749,
        "name": "INTELSAT 21 (IS-21)",
        "group": "intelsat",
        "lat": -0.028539464020839216,
        "lon": 176.20425829042324,
        "alt_km": 35783.23290265281,
        "timestamp": "2025-12-02T10:50:46.941229+00:00",
        "meta_object_name": "INTELSAT 21 (IS-21)",
        "meta_object_id": "2012-045A",
        "meta_epoch": "2025-12-02T03:14:06.383904",
        "meta_mean_motion": 1.00268012,
        "meta_eccentricity": 0.000237,
        "meta_inclination": 0.0159,
        "meta_ra_of_asc_node": 309.9102,
        "meta_arg_of_pericenter": 293.1144,
        "meta_mean_anomaly": 178.756,
        "meta_ephemeris_type": 0,
        "meta_classification_type": "U",
        "meta_norad_cat_id": 38749,
        "meta_element_set_no": 999,
        "meta_rev_at_epoch": 4854,
        "meta_bstar": 0,
        "meta_mean_motion_dot": -2.64e-06,
        "meta_mean_motion_ddot": 0,
        "tle_line1": "1 38749U 12045A   25336.13479611 -.00000264  00000+0  00000+0 0  9995",
        "tle_line2": "2 38749   0.0159 309.9102 0002370 293.1144 178.7560  1.00268012 48543"
      },
      "geometry": {
        "type": "Point",
        "coordinates": [
          176.20425829042324,
          -0.028539464020839216
        ]
      }
    }
  ]
}